CAS-2T & KS-1Q          
1 41847U 16066G   21005.74370930  .00000062  00000-0  20167-4 0  9992
2 41847  98.6271  63.9976 0365151 346.0930  13.0404 14.38133663218499
NAYIF-1 (EO-88)         
1 42017U 17008BX  21005.86390967  .00002336  00000-0  89979-4 0  9996
2 42017  97.3379  76.2905 0005299 340.2915  19.8119 15.27329070216433
ZHUHAI-1 02 (CAS-4B)    
1 42759U 17034B   21005.84429344  .00000332  00000-0  33467-4 0  9993
2 42759  43.0192 354.9223 0010366 232.2105 199.5180 15.10031310196562
ZHUHAI-1 01 (CAS-4A)    
1 42761U 17034D   21005.84419291  .00000343  00000-0  34076-4 0  9995
2 42761  43.0203 354.0904 0011031 232.9448 199.2251 15.10111965196563
MAX VALIER SAT          
1 42778U 17036P   21005.72901930  .00001208  00000-0  53997-4 0  9992
2 42778  97.2794  59.5045 0012876  37.1009 323.1116 15.23116348196513
RADFXSAT (FOX-1B)       
1 43017U 17073E   21005.80402944  .00000606  00000-0  51527-4 0  9998
2 43017  97.7173 276.1643 0257300 110.7488 252.1500 14.79243175169077
FOX-1D (AO-92)          
1 43137U 18004AC  21005.86483717  .00001556  00000-0  65778-4 0  9997
2 43137  97.4260  81.4719 0010448  68.4015 291.8334 15.24691150165881
DIWATA-2B               
1 43678U 18084H   21005.85698207  .00000375  00000-0  42963-4 0  9995
2 43678  97.9049 130.5365 0008876 222.4885 137.5631 14.91697701119193
ES'HAIL 2               
1 43700U 18090A   21005.78852110  .00000153  00000-0  00000-0 0  9991
2 43700   0.0195  43.5268 0001647 278.8598  92.8515  1.00270389  7731
FOX-1CLIFF (AO-95)      
1 43770U 18099N   21005.90040803  .00000181  00000-0  21687-4 0  9998
2 43770  97.6858  79.5310 0013296 238.0098 121.9832 14.95162416114160
ITASAT 1                
1 43786U 18099AE  21005.78584094  .00000022  00000-0  71895-5 0  9997
2 43786  97.6874  79.9831 0014140 231.4634 128.5320 14.95475308114172
JY1SAT (JO-97)          
1 43803U 18099AX  21005.77459797 -.00000011  00000-0  41669-5 0  9992
2 43803  97.6837  79.7477 0014019 231.6382 128.3580 14.95689452114175
PSAT2 (NO-104)          
1 44354U 19036R   21005.63376433  .00010572  00000-0  14495-3 0  9993
2 44354  28.5304 128.6015 0343919 317.2037  40.2255 15.08698849 84322
BRICSAT2 (NO-103)       
1 44355U 19036S   21005.64020424  .00023881  00000-0  29666-3 0  9994
2 44355  28.5285 105.0594 0303690 355.5665   4.2268 15.19142442 84561
JAISAT-1                
1 44419U 19038F   21005.86821538  .00001299  00000-0  76370-4 0  9990
2 44419  97.5671 331.4599 0021998 149.0453 211.2080 15.13275194 83203
DUCHIFAT-3              
1 44854U 19089C   21005.63889707  .00000583  00000-0  53247-4 0  9999
2 44854  36.9673 343.3227 0008921 264.0100  95.9621 14.99283288 58658
RS-44 & BREEZE-KM R/B   
1 44909U 19096E   21005.69546340 -.00000001  00000-0 -55747-4 0  9991
2 44909  82.5197 220.9309 0218297 113.5659 248.8535 12.79708067 48053
ORBITAL FACTORY 2 (OF-2)
1 45113U 19071C   21005.66058278  .00003209  00000-0  10550-3 0  9990
2 45113  51.6430 106.0758 0012895  66.6875 293.5463 15.34538482 52164
HUSKYSAT-1              
1 45119U 19071J   21005.68003753  .00003467  00000-0  11268-3 0  9999
2 45119  51.6423 105.4550 0012218  63.6403 296.5833 15.34661909 52163
BY70-2                  
1 45857U 20042B   21005.89818925  .00001193  00000-0  17809-3 0  9997
2 45857  97.9994  83.2899 0011016  25.2654 334.9069 14.76602973 27558
SALSAT                  
1 46495U 20068K   21003.79626984 -.00000062  00000-0 -13213-7 0  9998
2 46495  97.6807 302.4303 0015061 271.7675  88.1824 15.03311882 14592
BY70-3                  
1 46839U 20079N   21005.86732400  .00002480  00000-0  81148-4 0  9996
2 46839  97.2590  82.9300 0008958  73.8045  37.5987 15.32594538  9297
OSCAR 7 (AO-7)          
1 07530U 74089B   21005.93657948 -.00000028  00000-0  11257-3 0  9992
2 07530 101.8318 340.7629 0012237 335.7295  91.6268 12.53646802111360
